GAOFEN-1 02             
1 43259U 18031A   26191.34067044  .00000801  00000+0  12243-3 0  9996
2 43259  98.0516 253.8019 0001696 314.5251  45.5819 14.76469031446114
GAOFEN-1 03             
1 43260U 18031B   26191.31873869  .00000420  00000+0  67773-4 0  9991
2 43260  98.0506 253.6357 0002797  28.7408 331.3955 14.76458419446103
GAOFEN-1 04             
1 43262U 18031D   26191.29446845  .00000552  00000+0  86725-4 0  9994
2 43262  98.0518 253.8054 0001513  58.6911 301.4447 14.76467990446096
SUPERBIRD-B3            
1 43271U 18033A   26191.21919785 -.00000081  00000+0  00000+0 0  9991
2 43271   0.0147 316.8722 0001156 186.1493  26.0456  1.00270952 30298
HYLAS 4                 
1 43272U 18033B   26191.20385681 -.00000223  00000+0  00000+0 0  9991
2 43272   0.0130 315.8388 0000817 194.8332 177.3455  1.00270861 30297
YAOGAN-31 01A           
1 43275U 18034A   26191.32644041 -.00000211  00000+0 -16138-3 0  9997
2 43275  63.3957  31.7405 0277264   7.5781 352.9305 13.45463250405214
YAOGAN-31 01B           
1 43276U 18034B   26191.32770331 -.00000236  00000+0 -19441-3 0  9997
2 43276  63.3959  31.7448 0277267   7.5315 352.9746 13.45458874405338
YAOGAN-31 01C           
1 43277U 18034C   26191.33056545 -.00000173  00000+0 -11093-3 0  9998
2 43277  63.3968  31.1047 0277444   7.2364 353.2540 13.45445589405353
WEINA 1B                
1 43279U 18034E   26191.26914312 -.00000181  00000+0 -12123-3 0  9991
2 43279  63.3962  32.4957 0277118   7.9361 352.5915 13.45372458405313
IRNSS-1I                
1 43286U 18035A   26187.83739038  .00000079  00000+0  00000+0 0  9999
2 43286  28.7973  73.8917 0018087 180.4002  27.0525  1.00279237 30279
USA 283                 
1 43339U 18036A   26188.52802153 -.00000302  00000+0  00000+0 0  9995
2 43339   0.0144 201.6353 0000938   5.6408  42.3965  1.00268378 25490
COSMOS 2526             
1 43432U 18037A   26190.59425925 -.00000334  00000+0  00000+0 0  9993
2 43432   0.0315  92.7031 0001344 101.5058  75.2973  1.00247115 30187
SENTINEL-3B             
1 43437U 18039A   26190.42086302  .00000053  00000+0  40007-4 0  9997
2 43437  98.6239 257.6331 0001016 120.0757 240.0524 14.26741005427298
ZHUHAI-1 OVS-02         
1 43440U 18040B   26191.32574453  .00005042  00000+0  20264-3 0  9997
2 43440  97.0387 207.1859 0004594 147.5690 212.5832 15.25335867456246
ZHUHAI-1 OHS-02         
1 43441U 18040C   26191.29766917  .00005362  00000+0  20944-3 0  9992
2 43441  97.0367 214.1221 0010836 139.9821 220.2219 15.26221256117801
USA 285                 
1 43445U 18036E   26191.22256332 -.00000201  00000+0  00000+0 0  9994
2 43445   7.1700  66.6710 0011124 168.4001  31.2861  1.02114791 27176
USA 286                 
1 43446U 18036F   26183.06784586 -.00000180  00000+0  00000+0 0  9991
2 43446   7.1482  66.7455 0010518 165.9237 352.0955  1.02122725 27073
APSTAR-6C               
1 43450U 18041A   26190.80924505 -.00000305  00000+0  00000+0 0  9998
2 43450   0.0263 338.0319 0000499 315.6172  59.4350  1.00271071 30034
GAOFEN-5 01             
1 43461U 18043A   26190.66830026  .00000209  00000+0  53023-4 0  9990
2 43461  98.4586 162.7286 0002397  43.0598 317.0789 14.60621115434971
BANGABANDHUSAT-1        
1 43463U 18044A   26191.30536499 -.00000352  00000+0  00000+0 0  9994
2 43463   0.0167  76.1046 0001679  43.6677  37.4789  1.00272689 29943
GRACE-FO 1              
1 43476U 18047A   26191.25390220  .00002779  00000+0  72352-4 0  9993
2 43476  88.9917 194.7805 0012107  35.1766 325.0286 15.38420414453348
GRACE-FO 2              
1 43477U 18047B   26191.25418615  .00002806  00000+0  73053-4 0  9993
2 43477  88.9917 194.7804 0012111  35.2306 324.9748 15.38418841453346
IRIDIUM 161             
1 43478U 18047C   26190.21618748  .00000208  00000+0  55734-4 0  9998
2 43478  86.4469  79.2595 0002353  78.9993 281.1472 14.43284336428311
IRIDIUM 152             
1 43479U 18047D   26190.21845939  .00000162  00000+0  50953-4 0  9990
2 43479  86.3944  79.1199 0002172  82.5193 277.6250 14.34218640425642
IRIDIUM 147             
1 43480U 18047E   26191.20155174  .00000216  00000+0  70123-4 0  9998
2 43480  86.3943  78.7142 0002275  88.4445 271.7011 14.34216920425789
IRIDIUM 110             
1 43481U 18047F   26191.13812865  .00000166  00000+0  52222-4 0  9992
2 43481  86.3948  78.8334 0002218  76.9125 283.2318 14.34217351425768
IRIDIUM 162             
1 43482U 18047G   26191.11118814  .00000189  00000+0  50126-4 0  9990
2 43482  86.4467  78.7759 0002187  84.2783 275.8667 14.43283456428433
GAOFEN-6                
1 43484U 18048A   26191.31673601 -.00000013  00000+0  56173-5 0  9991
2 43484  98.0959 254.0071 0012133  95.3008 264.9586 14.76378602436804
LUOJIA-1 01             
1 43485U 18048B   26191.31718825  .00001757  00000+0  20024-3 0  9999
2 43485  97.8096 269.1341 0010132  52.2925 307.9209 14.87373632437652
SES-12                  
1 43488U 18049A   26191.30042497 -.00000259  00000+0  00000+0 0  9992
2 43488   0.0111   0.4773 0000833 262.5484 228.3571  1.00272012 29653
FENGYUN 2H              
1 43491U 18050A   26191.08358605 -.00000119  00000+0  00000+0 0  9999
2 43491   3.0864  78.8122 0002195 128.8025 189.6973  1.00267887 29660
COSMOS 2527 [GLONASS-M] 
1 43508U 18053A   26190.14000907 -.00000024  00000+0  00000+0 0  9991
2 43508  65.5893  73.1758 0006665 231.8684 128.1313  2.13102220 62745
PAKTES 1A               
1 43529U 18056A   26191.29894279  .00001201  00000+0  10365-3 0  9993
2 43529  98.1287 348.7717 0020151  34.7234 325.5299 14.99191790435387
PRSS-1                  
1 43530U 18056B   26191.28081760  .00000760  00000+0  10221-3 0  9997
2 43530  97.7810 258.5105 0001317  84.4037 275.7327 14.82024907431854
BEIDOU-2 IGSO-7         
1 43539U 18057A   26182.89122331 -.00000033  00000+0  00000+0 0  9998
2 43539  55.1981 162.9292 0104946 237.8611 308.6338  1.00246939 29273
TELSTAR 19V             
1 43562U 18059A   26191.19796344 -.00000269  00000+0  00000+0 0  9991
2 43562   0.0382 177.1918 0002857 312.9485 166.2517  1.00270133 29379
GSAT0221 (GALILEO 25)   
1 43564U 18060A   26190.94173446 -.00000079  00000+0  00000+0 0  9998
2 43564  57.1621 341.1668 0002608 288.2741  71.6944  1.70476012 49555
GSAT0222 (GALILEO 26)   
1 43565U 18060B   26189.98825864 -.00000075  00000+0  00000+0 0  9995
2 43565  57.1651 341.1962 0002626 236.6696 123.3045  1.70475769 49580
GSAT0219 (GALILEO 23)   
1 43566U 18060C   26190.20911964 -.00000076  00000+0  00000+0 0  9991
2 43566  57.1645 341.1918 0001791 303.0651  56.9164  1.70476041 49562
GSAT0220 (GALILEO 24)   
1 43567U 18060D   26191.01669920 -.00000079  00000+0  00000+0 0  9997
2 43567  57.1639 341.1705 0002110 293.5002  66.4744  1.70475701 49561
IRIDIUM 160             
1 43569U 18061A   26191.01419513  .00000111  00000+0  32630-4 0  9996
2 43569  86.3937  47.2497 0002252  86.2180 273.9273 14.34217652416643
IRIDIUM 166             
1 43570U 18061B   26190.55118481  .00000021  00000+0  34358-6 0  9997
2 43570  86.3942  47.3936 0002256  89.7499 270.3955 14.34217868416608
IRIDIUM 158             
1 43571U 18061C   26191.00785226 -.00000083  00000+0 -36732-4 0  9992
2 43571  86.3938  47.2127 0002004  86.2707 273.8718 14.34216771416630
IRIDIUM 165             
1 43572U 18061D   26190.54484201  .00000093  00000+0  26099-4 0  9994
2 43572  86.3944  47.4530 0002256  90.6727 269.4727 14.34216760416592
IRIDIUM 155             
1 43573U 18061E   26191.06493464 -.00000041  00000+0 -21531-4 0  9995
2 43573  86.3934  47.1028 0001995  87.9666 272.1759 14.34216576416637
IRIDIUM 154             
1 43574U 18061F   26191.04590704  .00000230  00000+0  74938-4 0  9996
2 43574  86.3945  47.2461 0002313  90.2087 269.9374 14.34217301416680
IRIDIUM 163             
1 43575U 18061G   26191.02687937  .00000177  00000+0  56161-4 0  9998
2 43575  86.3939  47.1685 0002178  85.1435 275.0009 14.34217315416655
IRIDIUM 156             
1 43576U 18061H   26191.07127808  .00000135  00000+0  41269-4 0  9997
2 43576  86.3939  47.1572 0002057  90.4782 269.6649 14.34217543416653
IRIDIUM 164             
1 43577U 18061J   26190.56387249  .00000122  00000+0  36382-4 0  9994
2 43577  86.3941  47.4104 0002307  89.7365 270.4095 14.34216708416621
IRIDIUM 159             
1 43578U 18061K   26191.29961054  .00000130  00000+0  39382-4 0  9990
2 43578  86.3939  47.0388 0002186  85.2947 274.8498 14.34217565416695
BEIDOU-3 M5             
1 43581U 18062A   26189.58528560  .00000121  00000+0  00000+0 0  9995
2 43581  54.0866 181.5769 0005712 292.3518  67.5967  1.86228617 54037
BEIDOU-3 M6             
1 43582U 18062B   26188.37493262  .00000119  00000+0  00000+0 0  9999
2 43582  54.0860 181.6071 0005088   9.1977 350.8186  1.86227975 54013
GAOFEN-11 01            
1 43585U 18063A   26191.33058312  .00013625  00000+0  19746-3 0  9993
2 43585  97.1282 258.1530 0002649 220.0836 140.0224 15.55971687443943
TELKOM 4 (MERAH PUTIH)  
1 43587U 18064A   26190.76016994 -.00000331  00000+0  00000+0 0  9992
2 43587   0.0179  55.8846 0001650  93.8853 159.5730  1.00269125 29108
BEIDOU-3 M12            
1 43602U 18067A   26190.99815852  .00000111  00000+0  00000+0 0  9993
2 43602  54.1817 180.2667 0007905  30.5943 329.4569  1.86227772 53545
BEIDOU-3 M11            
1 43603U 18067B   26191.13328510  .00000110  00000+0  00000+0 0  9990
2 43603  54.1791 180.2259 0004618  13.9452 346.0721  1.86227244 53574
HAIYANG-1C              
1 43609U 18068A   26191.19809090 -.00000156  00000+0 -40200-4 0  9993
2 43609  98.5181 263.1727 0011458  32.4865 327.7023 14.34185282410389
TELSTAR 18V             
1 43611U 18069A   26191.28447437 -.00000283  00000+0  00000+0 0  9999
2 43611   0.0132 332.6810 0001754 143.6790  52.2638  1.00269704 28873
ICESAT-2                
1 43613U 18070A   26191.26926299  .00006577  00000+0  23858-3 0  9990
2 43613  92.0085 297.2163 0005808  75.8575 284.3319 15.28295631435982
SSTL S1-4               
1 43618U 18071A   26191.29507803 -.00000157  00000+0 -91237-5 0  9993
2 43618  97.5002  61.9445 0002024  95.0705 265.0748 14.96197599426396
